[{"OBJECT_ID":"2001-012A","OBJECT_NAME":"XM-2","NORAD_CAT_ID":"26724","OBJECT_TYPE":"PAYLOAD","PERIOD":"1453.309","INCLINATION":"1.5254","APOGEE":"36141.632","PERIGEE":"36104.036","ECCENTRICITY":"0.0004423","MEAN_MOTION":"0.99084223","TLE_LINE1":"1 26724U 01012A   16237.39650829 -.00000265  00000-0  00000+0 0  9999","TLE_LINE2":"2 26724   1.5254  79.8079 0004423 349.9609  10.5779  0.99084223 56527","LAUNCH_DATE":"2001-03-18","LAUNCH_SITE":"SEA LAUNCH","OWNER":"UNITED STATES OF AMERICA","ORBIT_TYPE":"Geosynchronous","OPERATIONAL_STATUS":"Nonoperational","satInfo":{"lng":72.4707361866387,"lat":1.3371483980955436,"elevation":-7.20189416271259,"azimuth":242.5292638133613,"range":42808.765314402815,"height":36104.44784265874,"velocity":3.063869505979384},"x":288,"y":-89,"dx":0.9228156531618255,"dy":-2.9215933358271937},{"OBJECT_ID":"2001-012B","OBJECT_NAME":"BLOCK DM-SL R/B","NORAD_CAT_ID":"26725","OBJECT_TYPE":"ROCKET BODY","PERIOD":"644.082","INCLINATION":"0.7014","APOGEE":"35757.724","PERIGEE":"896.355","ECCENTRICITY":"0.7055479","MEAN_MOTION":"2.23573776","TLE_LINE1":"1 26725U 01012B   16239.42840433 -.00000252  00000-0  86986-3 0  9995","TLE_LINE2":"2 26725   0.7014 170.3362 7055479 168.3659   8.3146  2.23573776126141","LAUNCH_DATE":"2001-03-18","LAUNCH_SITE":"SEA LAUNCH","OWNER":"SEA LAUNCH DEMO","ORBIT_TYPE":"Highly Elliptical Orbit","OPERATIONAL_STATUS":"N/A, derelict rocket body","satInfo":{"lng":154.82103521067918,"lat":1.371804134952814,"elevation":-10.083123035617582,"azimuth":160.17896478932082,"range":32006.13471541714,"height":25142.678224212672,"velocity":3.025755748898235},"x":90,"y":186,"dx":-2.738258451084219,"dy":-1.2872989190769075},{"OBJECT_ID":"2001-018A","OBJECT_NAME":"XM-1","NORAD_CAT_ID":"26761","OBJECT_TYPE":"PAYLOAD","PERIOD":"1454.468","INCLINATION":"0.4465","APOGEE":"36182.649","PERIGEE":"36108.224","ECCENTRICITY":"0.0008751","MEAN_MOTION":"0.99005233","TLE_LINE1":"1 26761U 01018A   16238.27202336  .00000032  00000-0  00000+0 0  9991","TLE_LINE2":"2 26761   0.4465  89.9757 0008751  92.1067 113.1748  0.99005233 56078","LAUNCH_DATE":"2001-05-08","LAUNCH_SITE":"SEA LAUNCH","OWNER":"UNITED STATES OF AMERICA","ORBIT_TYPE":"Geosynchronous","OPERATIONAL_STATUS":"Nonoperational","satInfo":{"lng":20.079450463891913,"lat":-1.8862157201748204,"elevation":-10.334322336060865,"azimuth":294.92054953610807,"range":43238.15942026157,"height":36181.639603406365,"velocity":3.0590510214438402},"x":104,"y":-279,"dx":2.8731140926506162,"dy":-1.0502421446547592},{"OBJECT_ID":"2001-018B","OBJECT_NAME":"BLOCK DM-SL R/B","NORAD_CAT_ID":"26762","OBJECT_TYPE":"ROCKET BODY","PERIOD":"643.306","INCLINATION":"1.039","APOGEE":"35709.034","PERIGEE":"905.323","ECCENTRICITY":"0.7049477","MEAN_MOTION":"2.23843647","TLE_LINE1":"1 26762U 01018B   16238.43829903 -.00000120  00000-0  20000-2 0  9999","TLE_LINE2":"2 26762   1.0390 271.9051 7049477  97.4386   8.1546  2.23843647125133","LAUNCH_DATE":"2001-05-08","LAUNCH_SITE":"SEA LAUNCH","OWNER":"SEA LAUNCH DEMO","ORBIT_TYPE":"Highly Elliptical Orbit","OPERATIONAL_STATUS":"N/A, derelict rocket body","satInfo":{"lng":-120.52529090532869,"lat":0.11805852402054602,"elevation":-10.06865031528564,"azimuth":75.52529090532866,"range":35945.52313586381,"height":29013.863651195894,"velocity":2.524744674719968},"x":-210,"y":120,"dx":-1.2823648938000767,"dy":2.174827798166088},{"OBJECT_ID":"2001-019A","OBJECT_NAME":"INTELSAT 10 (PAS 10)","NORAD_CAT_ID":"26766","OBJECT_TYPE":"PAYLOAD","PERIOD":"1436.072","INCLINATION":"0.9002","APOGEE":"35791.341","PERIGEE":"35780.901","ECCENTRICITY":"0.0001238","MEAN_MOTION":"1.00273481","TLE_LINE1":"1 26766U 01019A   16239.18088193  .00000098  00000-0  00000+0 0  9993","TLE_LINE2":"2 26766   0.9002  86.5745 0001238  98.2120 262.6801  1.00273481 56014","LAUNCH_DATE":"2001-05-15","LAUNCH_SITE":"TYURATAM MISSILE AND SPACE COMPLEX","OWNER":"UNITED STATES OF AMERICA","ORBIT_TYPE":"Geosynchronous","OPERATIONAL_STATUS":"Operational","satInfo":{"lng":100.24214484506457,"lat":2.141355896228949,"elevation":-6.47789630615162,"azimuth":214.7578551549354,"range":42399.28139414473,"height":35779.8540192777,"velocity":3.0749363212860374},"x":295,"y":52,"dx":-0.5467502253214893,"dy":-3.025937469789323},{"OBJECT_ID":"2001-024A","OBJECT_NAME":"INTELSAT 901","NORAD_CAT_ID":"26824","OBJECT_TYPE":"PAYLOAD","PERIOD":"1436.094","INCLINATION":"0.0589","APOGEE":"35798.070","PERIGEE":"35775.014","ECCENTRICITY":"0.0002734","MEAN_MOTION":"1.0027198","TLE_LINE1":"1 26824U 01024A   16239.00322626 -.00000169  00000-0  00000+0 0  9997","TLE_LINE2":"2 26824   0.0589 289.4474 0002734 238.8993 149.4875  1.00271980 55671","LAUNCH_DATE":"2001-06-09","LAUNCH_SITE":"FRENCH GUIANA","OWNER":"INTERNATIONAL TELECOMMUNICATIONS SATELLITE ORGANIZATION (INTELSAT)","ORBIT_TYPE":"Geosynchronous","OPERATIONAL_STATUS":"Operational","satInfo":{"lng":-109.29937762261311,"lat":-0.4121716551062314,"elevation":-8.983391280443918,"azimuth":64.2993776226131,"range":42651.018692133715,"height":35750.79816928374,"velocity":3.076129673243393},"x":-283,"y":96,"dx":-1.0166735941009553,"dy":2.9032651566238914},{"OBJECT_ID":"2001-025A","OBJECT_NAME":"ASTRA 2C","NORAD_CAT_ID":"26853","OBJECT_TYPE":"PAYLOAD","PERIOD":"1436.103","INCLINATION":"0.097","APOGEE":"35800.070","PERIGEE":"35773.380","ECCENTRICITY":"0.0003165","MEAN_MOTION":"1.00271327","TLE_LINE1":"1 26853U 01025A   16238.95478243 +.00000019 +00000-0 +00000-0 0  9994","TLE_LINE2":"2 26853 000.0970 290.5628 0003165 229.4018 218.6717 01.00271327009144","LAUNCH_DATE":"2001-06-16","LAUNCH_SITE":"TYURATAM MISSILE AND SPACE COMPLEX","OWNER":"SOCIÉTÉ EUROPÉENNE DES SATELLITES","ORBIT_TYPE":"Geosynchronous","OPERATIONAL_STATUS":"Operational","satInfo":{"lng":89.93519680194963,"lat":-0.2669977759183516,"elevation":-8.835052985905666,"azimuth":225.06480319805038,"range":42668.020097321525,"height":35784.06734977324,"velocity":3.0748692499610963},"x":300,"y":-1,"dx":0.003477766079704469,"dy":-3.0748672832334423},{"OBJECT_ID":"2001-039A","OBJECT_NAME":"INTELSAT 902","NORAD_CAT_ID":"26900","OBJECT_TYPE":"PAYLOAD","PERIOD":"1436.078","INCLINATION":"0.0159","APOGEE":"35798.778","PERIGEE":"35773.699","ECCENTRICITY":"0.0002974","MEAN_MOTION":"1.00273061","TLE_LINE1":"1 26900U 01039A   16239.03591009  .00000005  00000-0  00000+0 0  9992","TLE_LINE2":"2 26900   0.0159 103.0047 0002974  54.9703 251.6618  1.00273061 54850","LAUNCH_DATE":"2001-08-30","LAUNCH_SITE":"FRENCH GUIANA","OWNER":"INTERNATIONAL TELECOMMUNICATIONS SATELLITE ORGANIZATION (INTELSAT)","ORBIT_TYPE":"Geosynchronous","OPERATIONAL_STATUS":"Operational","satInfo":{"lng":88.2907993014453,"lat":0.527541225520436,"elevation":-8.058551540438893,"azimuth":226.7092006985547,"range":42581.67679177619,"height":35784.84507346072,"velocity":3.0748420697274064},"x":300,"y":-9,"dx":0.09171256263464765,"dy":-3.0734740213023612},{"OBJECT_ID":"2001-042A","OBJECT_NAME":"EUTE 8 WEST A (AB 2)","NORAD_CAT_ID":"26927","OBJECT_TYPE":"PAYLOAD","PERIOD":"1436.095","INCLINATION":"0.08","APOGEE":"35805.309","PERIGEE":"35767.833","ECCENTRICITY":"0.0004444","MEAN_MOTION":"1.00271876","TLE_LINE1":"1 26927U 01042A   16238.81412957 -.00000128  00000-0  00000+0 0  9991","TLE_LINE2":"2 26927   0.0800  40.2110 0004444 120.7354  94.1224  1.00271876 54601","LAUNCH_DATE":"2001-09-25","LAUNCH_SITE":"FRENCH GUIANA","OWNER":"EUROPEAN TELECOMMUNICATIONS SATELLITE ORGANIZATION (EUTELSAT)","ORBIT_TYPE":"Geosynchronous","OPERATIONAL_STATUS":"Operational","satInfo":{"lng":-172.78972421002,"lat":0.11915856145106529,"elevation":-8.462950390753948,"azimuth":127.78972421001998,"range":42600.9693812961,"height":35759.05150068192,"velocity":3.0763429074673385},"x":-38,"y":290,"dx":-3.052015825476589,"dy":0.3861153783068656},{"OBJECT_ID":"2001-052A","OBJECT_NAME":"DIRECTV 4S","NORAD_CAT_ID":"26985","OBJECT_TYPE":"PAYLOAD","PERIOD":"1436.101","INCLINATION":"0.0424","APOGEE":"35795.510","PERIGEE":"35777.852","ECCENTRICITY":"0.0002094","MEAN_MOTION":"1.00271483","TLE_LINE1":"1 26985U 01052A   16238.48332910 -.00000139 +00000-0 +00000-0 0  9992","TLE_LINE2":"2 26985 000.0424 285.4786 0002094 252.1909 229.3002 01.00271483015409","LAUNCH_DATE":"2001-11-27","LAUNCH_SITE":"FRENCH GUIANA","OWNER":"UNITED STATES OF AMERICA","ORBIT_TYPE":"Geosynchronous","OPERATIONAL_STATUS":"Operational","satInfo":{"lng":-105.17027428093144,"lat":-0.10796836141719449,"elevation":-8.679709836501264,"azimuth":60.17027428093141,"range":42650.990265931956,"height":35784.46292763055,"velocity":3.074901976877862},"x":-290,"y":76,"dx":-0.80466642926838,"dy":2.9677489962959904},{"OBJECT_ID":"2002-002A","OBJECT_NAME":"INSAT 3C","NORAD_CAT_ID":"27298","OBJECT_TYPE":"PAYLOAD","PERIOD":"1436.105","INCLINATION":"0.0153","APOGEE":"35803.369","PERIGEE":"35770.177","ECCENTRICITY":"0.0003936","MEAN_MOTION":"1.00271156","TLE_LINE1":"1 27298U 02002A   16238.86269574 -.00000104 +00000-0 +00000-0 0  9995","TLE_LINE2":"2 27298 000.0153 126.2727 0003936 005.8586 226.9576 01.00271156053489","LAUNCH_DATE":"2002-01-23","LAUNCH_SITE":"FRENCH GUIANA","OWNER":"INDIA","ORBIT_TYPE":"Geosynchronous","OPERATIONAL_STATUS":"Operational","satInfo":{"lng":76.61032167007001,"lat":-0.7356066241931428,"elevation":-9.293205666315618,"azimuth":238.38967832992995,"range":42714.36188767865,"height":35779.06436118248,"velocity":3.075225087155887},"x":292,"y":-68,"dx":0.7121380441672047,"dy":-2.9916331230153608}]